{"type":"FeatureCollection","name":"Đường bờ biển Việt Nam khái quát","features":[{"type":"Feature","properties":{"name":"Đường bờ biển Việt Nam","lengthKmModel":3705.3,"note":"Hình học khái quát phục vụ học tập, không dùng cho dẫn đường hoặc xác lập ranh giới pháp lý."},"geometry":{"type":"LineString","coordinates":[[107.990957,21.485373],[107.854964,21.600809],[107.832411,21.639334],[107.745331,21.657143],[107.690825,21.625342],[107.613262,21.606145],[107.533183,21.608747],[107.509409,21.581859],[107.461583,21.596198],[107.44641,21.646832],[107.409963,21.646002],[107.347998,21.599203],[107.33365,21.61303],[107.30279,21.688399],[107.272652,21.718791],[107.212649,21.704615],[107.171974,21.714692],[107.065233,21.796455],[107.002691,21.810852],[106.987112,21.845108],[107.021349,21.892386],[107.008707,21.92797],[106.970834,21.935243],[106.920926,21.916755],[106.864634,21.967825],[106.781453,21.975563],[106.721933,22.007544],[106.674627,21.961697],[106.648725,21.996031],[106.67178,22.09256],[106.639284,22.191015],[106.663081,22.223482],[106.639057,22.297319],[106.61739,22.32343],[106.555965,22.332209],[106.533304,22.403294],[106.568946,22.574669],[106.607507,22.609721],[106.646647,22.56844],[106.680524,22.578992],[106.697299,22.6306],[106.734816,22.69561],[106.747187,22.744533],[106.791629,22.772657],[106.79048,22.797198],[106.731733,22.800572],[106.667883,22.868027],[106.610345,22.852267],[106.581429,22.894803],[106.487627,22.92569],[106.457811,22.889171],[106.31626,22.853608],[106.233999,22.863807],[106.202379,22.947187],[106.170169,22.966509],[106.077555,22.980795],[105.9995,22.975855],[105.944697,22.927123],[105.887329,22.93018],[105.853322,22.904469],[105.755308,23.00583],[105.690718,23.04429],[105.565569,23.054329],[105.534815,23.099416],[105.517395,23.167627],[105.473265,23.195027],[105.430736,23.26739],[105.389451,23.275676],[105.332015,23.318063],[105.311464,23.365811],[105.280445,23.359055],[105.236085,23.3196],[105.21681,23.265105],[105.060412,23.23253],[104.98077,23.190285],[104.945394,23.160289],[104.870209,23.162971],[104.861409,23.119345],[104.79809,23.085199],[104.827723,22.954376],[104.823346,22.924383],[104.774831,22.895696],[104.727861,22.839734],[104.663222,22.810985],[104.610254,22.823133],[104.579416,22.809423],[104.552861,22.836613],[104.448816,22.744959],[104.36235,22.692839],[104.340347,22.685935],[104.249043,22.727788],[104.228158,22.783574],[104.241161,22.824528],[104.213224,22.824393],[104.073816,22.782753],[104.024286,22.719759],[104.007303,22.629695],[103.985719,22.569587],[103.986028,22.527334],[103.959773,22.506721],[103.917021,22.5337],[103.894731,22.568987],[103.866792,22.575607],[103.794145,22.659582],[103.726069,22.716298],[103.647395,22.798788],[103.59038,22.768311],[103.544165,22.691577],[103.550498,22.648023],[103.504239,22.580818],[103.44805,22.618445],[103.404666,22.688884],[103.401159,22.73791],[103.344795,22.782307],[103.309462,22.787387],[103.252052,22.679114],[103.228857,22.655693],[103.14142,22.607009],[103.130067,22.578261],[103.142352,22.537524],[103.044795,22.48595],[103.045426,22.440991],[102.989774,22.437582],[102.893757,22.486772],[102.845305,22.585594],[102.812667,22.608315],[102.752227,22.625191],[102.692764,22.670668],[102.613134,22.691298],[102.586284,22.715416],[102.535245,22.695566],[102.515253,22.74566],[102.442929,22.764951],[102.394578,22.681077],[102.356842,22.658664],[102.38382,22.629139],[102.32489,22.565508],[102.252959,22.494828],[102.217985,22.411142],[102.164964,22.425203],[102.118664,22.397143],[102.118664,22.397143],[102.154221,22.305156],[102.22599,22.228761],[102.286531,22.199816],[102.388993,22.117033],[102.422162,22.061708],[102.482789,22.021782],[102.465721,21.995635],[102.478079,21.957681],[102.560424,21.924865],[102.591492,21.9008],[102.634223,21.788336],[102.629351,21.72968],[102.650934,21.657775],[102.720837,21.661475],[102.752602,21.680984],[102.786686,21.740033],[102.789829,21.820468],[102.826303,21.820952],[102.835173,21.716148],[102.864493,21.705627],[102.947169,21.736651],[102.962251,21.701408],[102.960293,21.633248],[102.974224,21.574822],[102.89525,21.494807],[102.849666,21.426093],[102.90459,21.452681],[102.916426,21.439201],[102.883682,21.388371],[102.874698,21.305133],[102.828455,21.285465],[102.801281,21.255134],[102.850754,21.251684],[102.887457,21.226256],[102.889762,21.166325],[102.91457,21.158456],[102.952118,21.068972],[103.01492,21.041099],[103.068593,20.931325],[103.115807,20.867796],[103.146522,20.846325],[103.226495,20.826727],[103.26275,20.825736],[103.3632,20.787196],[103.42663,20.820503],[103.49693,20.748889],[103.578229,20.733222],[103.665821,20.658947],[103.714959,20.671589],[103.70729,20.721972],[103.759228,20.749619],[103.753185,20.779566],[103.775937,20.83426],[103.952388,20.900868],[104.010373,20.90803],[104.056484,20.958733],[104.09275,20.961657],[104.194522,20.929448],[104.220839,20.891396],[104.259976,20.898386],[104.294885,20.879447],[104.335767,20.819621],[104.389618,20.770738],[104.451977,20.764131],[104.492774,20.701538],[104.600108,20.660916],[104.61464,20.643224],[104.60746,20.618665],[104.542538,20.535333],[104.496296,20.512026],[104.44556,20.53505],[104.423997,20.495439],[104.366267,20.458425],[104.359112,20.43931],[104.432989,20.410933],[104.576162,20.414067],[104.612412,20.377337],[104.680449,20.340659],[104.682003,20.287484],[104.657454,20.279257],[104.6576,20.212443],[104.690855,20.196142],[104.81937,20.220866],[104.907515,20.175936],[104.904651,20.135027],[104.956639,20.091413],[104.943657,20.066865],[104.945126,19.991868],[104.874454,19.982286],[104.858612,19.955003],[104.780802,19.908561],[104.76069,19.860809],[104.816913,19.848603],[104.805454,19.791318],[104.736377,19.74623],[104.691752,19.73525],[104.654388,19.698364],[104.622901,19.617846],[104.506384,19.602565],[104.415556,19.651383],[104.379443,19.685352],[104.342024,19.682491],[104.294638,19.65504],[104.277238,19.683606],[104.229622,19.706588],[104.136142,19.687073],[104.088837,19.651388],[104.022453,19.681036],[103.99816,19.652269],[104.017185,19.600561],[104.072099,19.558583],[104.089779,19.483678],[104.061096,19.47126],[104.038432,19.413872],[103.952348,19.39158],[103.920989,19.353219],[103.869454,19.327],[103.848101,19.299596],[103.892654,19.294418],[103.917308,19.257751],[103.972067,19.225342],[104.036637,19.229783],[104.147416,19.182607],[104.197817,19.14738],[104.21095,19.101073],[104.259709,19.104003],[104.302892,19.068716],[104.354602,19.048449],[104.400691,18.992693],[104.481017,18.977935],[104.544281,18.907188],[104.646172,18.832404],[104.68629,18.824293],[104.722148,18.791619],[104.815242,18.774006],[104.899718,18.769979],[104.936958,18.731809],[104.98992,18.733183],[105.06434,18.69635],[105.112999,18.697691],[105.170165,18.618547],[105.128668,18.599487],[105.100034,18.551771],[105.07997,18.454949],[105.091388,18.426303],[105.162775,18.366247],[105.157019,18.319881],[105.246878,18.246138],[105.292565,18.252893],[105.295324,18.195607],[105.368004,18.150475],[105.392353,18.19407],[105.450854,18.192577],[105.472202,18.172069],[105.47636,18.127052],[105.55171,18.047748],[105.565841,18.008156],[105.602771,17.969857],[105.593948,17.888054],[105.605228,17.853923],[105.643557,17.819704],[105.735473,17.663902],[105.788014,17.641877],[105.846129,17.597994],[105.91114,17.51724],[106.019903,17.393969],[106.185218,17.258045],[106.222038,17.245551],[106.260651,17.288952],[106.284754,17.284708],[106.309899,17.22727],[106.306707,17.176833],[106.336155,17.128911],[106.384051,17.08495],[106.386605,17.04675],[106.420194,16.989243],[106.496522,16.964151],[106.525068,16.989849],[106.533249,16.950242],[106.535346,16.682951],[106.572976,16.613123],[106.640638,16.586691],[106.640084,16.521242],[106.655203,16.470668],[106.69299,16.428095],[106.752338,16.428971],[106.798011,16.479036],[106.822518,16.530637],[106.864672,16.504358],[106.859548,16.411686],[106.950615,16.335871],[106.967203,16.300267],[107.067341,16.291131],[107.116362,16.255199],[107.127066,16.200558],[107.154912,16.166195],[107.239142,16.129881],[107.299025,16.063809],[107.327139,16.056689],[107.431659,16.073248],[107.432853,16.055514],[107.44499,16.010394],[107.390551,15.936033],[107.360682,15.911825],[107.305592,15.898788],[107.236092,15.855894],[107.175448,15.848332],[107.149522,15.794056],[107.16041,15.7585],[107.214983,15.727959],[107.249107,15.630816],[107.316168,15.58922],[107.369955,15.495948],[107.447425,15.508736],[107.487862,15.481021],[107.494156,15.41961],[107.576865,15.403672],[107.598446,15.33118],[107.658228,15.282772],[107.657252,15.205094],[107.62335,15.187772],[107.621543,15.155081],[107.584433,15.103713],[107.578148,15.047899],[107.519243,15.04856],[107.446029,15.024823],[107.462078,14.956491],[107.558006,14.88728],[107.491183,14.804863],[107.531746,14.677647],[107.504277,14.601607],[107.504999,14.541619],[107.456235,14.434439],[107.387553,14.421512],[107.350132,14.321],[107.359066,14.23911],[107.320111,14.119514],[107.344864,14.081099],[107.342857,14.02113],[107.371926,13.996306],[107.430446,13.98482],[107.446535,13.921947],[107.434829,13.870258],[107.443685,13.782917],[107.513855,13.692235],[107.597181,13.534607],[107.611055,13.40087],[107.606541,13.369563],[107.56225,13.262319],[107.461037,13.022002],[107.481499,12.98227],[107.46741,12.963317],[107.494168,12.858084],[107.535261,12.799067],[107.540001,12.717223],[107.565279,12.606552],[107.55702,12.473025],[107.514159,12.343908],[107.449956,12.299499],[107.416258,12.253441],[107.39268,12.252284],[107.319876,12.329269],[107.228188,12.310943],[107.153026,12.277453],[106.978344,12.097379],[106.915758,12.066448],[106.80352,12.068562],[106.749366,12.052539],[106.701735,11.97099],[106.631103,11.975502],[106.637939,11.960457],[106.505006,11.973479],[106.474405,11.951815],[106.442662,11.975171],[106.394138,11.969959],[106.439302,11.863322],[106.421162,11.837493],[106.398541,11.7462],[106.434185,11.677811],[106.41334,11.661544],[106.353965,11.690479],[106.287446,11.674414],[106.243329,11.714174],[106.154857,11.745925],[106.113324,11.747455],[106.0151,11.771016],[105.983022,11.707],[105.93435,11.643032],[105.858274,11.661007],[105.805564,11.624318],[105.790235,11.587518],[105.804012,11.565647],[105.853773,11.546402],[105.871351,11.412627],[105.844711,11.289897],[105.886119,11.267944],[105.89979,11.218779],[105.974329,11.189891],[106.062422,11.092713],[106.087152,11.055784],[106.131463,11.084275],[106.160354,11.054148],[106.187667,10.976269],[106.171075,10.970876],[106.131025,10.969663],[106.126655,10.909642],[106.151328,10.863159],[106.177177,10.766185],[106.155171,10.78537],[106.072408,10.796584],[106.017282,10.819967],[105.931943,10.896651],[105.899985,10.828519],[105.861367,10.839546],[105.821556,10.920165],[105.752759,11.015864],[105.697496,11.010537],[105.6325,10.973835],[105.523353,10.950843],[105.473622,10.941371],[105.410128,10.963298],[105.35758,10.907412],[105.327138,10.848764],[105.303664,10.844694],[105.252616,10.882952],[105.209819,10.891172],[105.097985,10.914428],[105.07728,10.947187],[105.028941,10.914443],[105.015129,10.848937],[105.066188,10.746576],[105.066181,10.713823],[105.042718,10.690627],[104.944757,10.641494],[104.853753,10.530921],[104.819283,10.517256],[104.724123,10.521282],[104.626194,10.533464],[104.554501,10.518359],[104.49397,10.428198],[104.451246,10.41994],[104.454072,10.380368],[104.529857,10.399594],[104.499575,10.370889]]}}]}